NORAD_CAT_ID,OBJECT_NAME,OBJECT_TYPE,EPOCH,MEAN_MOTION,ECCENTRICITY,INCLINATION,RA_OF_ASC_NODE,ARG_OF_PERICENTER,MEAN_ANOMALY,BSTAR,MEAN_MOTION_DOT,MEAN_MOTION_DDOT,TLE_LINE0,TLE_LINE1,TLE_LINE2,SEMIMAJOR_AXIS,PERIOD,APOGEE,PERIGEE,DECAYED
51752.0,STARLINK-3511,PAYLOAD,2024-04-09 07:52:29,15.08834064,0.0001615,53.217,208.6085,95.7422,264.3755,0.00010219,1.338e-05,0.0,0 STARLINK-3511,1 51752U 22016AQ  24100.32812294  .00001338  00000-0  10219-3 0  9990,2 51752  53.2170 208.6085 0001615  95.7422 264.3755 15.08834064119249,6917.899,95.438,540.881,538.646,0.0
51752.0,STARLINK-3511,PAYLOAD,2024-04-09 14:14:02,15.08838755,0.0001603,53.2176,207.4208,94.4711,265.6465,0.00016953,2.411e-05,0.0,0 STARLINK-3511,1 51752U 22016AQ  24100.59307922  .00002411  00000-0  16953-3 0  9990,2 51752  53.2176 207.4208 0001603  94.4711 265.6465 15.08838755118166,6917.884,95.438,540.858,538.64,0.0
51752.0,STARLINK-3511,PAYLOAD,2024-04-09 23:46:21,15.08845928,0.0001949,53.2175,205.638,104.0122,256.1087,-1.054e-05,-4.56e-06,0.0,0 STARLINK-3511,1 51752U 22016AQ  24100.99052121 -.00000456  00000-0 -10540-4 0  9998,2 51752  53.2175 205.6380 0001949 104.0122 256.1087 15.08845928119349,6917.862,95.437,541.076,538.379,0.0
51752.0,STARLINK-3511,PAYLOAD,2024-04-10 14:04:48,15.08847899,0.0001213,53.2155,202.9579,85.976,274.1371,2.7132e-05,1.44e-06,0.0,0 STARLINK-3511,1 51752U 22016AQ  24101.58667429  .00000144  00000-0  27132-4 0  9994,2 51752  53.2155 202.9579 0001213  85.9760 274.1371 15.08847899118317,6917.856,95.437,540.56,538.882,0.0
51752.0,STARLINK-3511,PAYLOAD,2024-04-10 15:40:11,15.08849308,0.0001224,53.2155,202.6603,83.6868,276.4263,3.5802e-05,2.82e-06,0.0,0 STARLINK-3511,1 51752U 22016AQ  24101.65291285  .00000282  00000-0  35802-4 0  9991,2 51752  53.2155 202.6603 0001224  83.6868 276.4263 15.08849308118321,6917.852,95.437,540.564,538.87,0.0
51752.0,STARLINK-3511,PAYLOAD,2024-04-11 12:20:13,15.08831559,0.000147,53.2169,198.7954,78.2526,281.8631,-8.1411e-05,-1.583e-05,0.0,0 STARLINK-3511,1 51752U 22016AQ  24102.51404891 -.00001583  00000-0 -81411-4 0  9990,2 51752  53.2169 198.7954 0001470  78.2526 281.8631 15.08831559119570,6917.906,95.438,540.788,538.754,0.0
51752.0,STARLINK-3511,PAYLOAD,2024-04-11 13:55:36,15.0883376,0.0001476,53.2176,198.4983,77.1464,282.9693,-6.2229e-05,-1.278e-05,0.0,0 STARLINK-3511,1 51752U 22016AQ  24102.58028730 -.00001278  00000-0 -62229-4 0  9998,2 51752  53.2176 198.4983 0001476  77.1464 282.9693 15.08833760118465,6917.899,95.438,540.786,538.743,0.0
51752.0,STARLINK-3511,PAYLOAD,2024-04-11 23:27:55,15.08836216,0.0001512,53.2183,196.7148,80.4338,279.6825,-2.439e-06,-3.27e-06,0.0,0 STARLINK-3511,1 51752U 22016AQ  24102.97772500 -.00000327  00000-0 -24390-5 0  9994,2 51752  53.2183 196.7148 0001512  80.4338 279.6825 15.08836216119645,6917.892,95.438,540.803,538.711,0.0
51752.0,STARLINK-3511,PAYLOAD,2024-04-12 12:11:00,15.08847287,0.0001481,53.2177,194.3361,82.2311,277.8849,-3.3454e-06,-3.41e-06,0.0,0 STARLINK-3511,1 51752U 22016AQ  24103.50763947 -.00000341  00000-0 -33454-5 0  9996,2 51752  53.2177 194.3361 0001481  82.2311 277.8849 15.08847287119720,6917.858,95.437,540.748,538.699,0.0
51752.0,STARLINK-3511,PAYLOAD,2024-04-12 13:46:23,15.08850307,0.0001447,53.2179,194.0389,81.803,278.3127,1.2198e-06,-2.69e-06,0.0,0 STARLINK-3511,1 51752U 22016AQ  24103.57387748 -.00000269  00000-0  12198-5 0  9994,2 51752  53.2179 194.0389 0001447  81.8030 278.3127 15.08850307118613,6917.849,95.437,540.715,538.713,0.0
51752.0,STARLINK-3511,PAYLOAD,2024-04-13 12:01:47,15.08841554,0.0001532,53.2179,189.8761,76.9799,283.1364,0.00017042,2.425e-05,0.0,0 STARLINK-3511,1 51752U 22016AQ  24104.50124123  .00002425  00000-0  17042-3 0  9990,2 51752  53.2179 189.8761 0001532  76.9799 283.1364 15.08841554119871,6917.876,95.437,540.8,538.681,0.0
51752.0,STARLINK-3511,PAYLOAD,2024-04-14 11:52:34,15.08845222,0.0001568,53.2188,185.4158,75.0114,285.1052,1.6634e-05,-2.3e-07,0.0,0 STARLINK-3511,1 51752U 22016AQ  24105.49484363 -.00000023  00000-0  16634-4 0  9994,2 51752  53.2188 185.4158 0001568  75.0114 285.1052 15.08845222120024,6917.864,95.437,540.814,538.645,0.0
51752.0,STARLINK-3511,PAYLOAD,2024-04-15 10:07:58,15.0884393,0.0001665,53.2195,181.2547,96.5016,263.6166,7.844e-05,9.61e-06,0.0,0 STARLINK-3511,1 51752U 22016AQ  24106.42220097  .00000961  00000-0  78440-4 0  9993,2 51752  53.2195 181.2547 0001665  96.5016 263.6166 15.08843930119046,6917.868,95.437,540.885,538.582,0.0
51752.0,STARLINK-3511,PAYLOAD,2024-04-16 05:12:36,15.08836847,0.0001417,53.2183,177.686,97.1922,262.9231,9.2073e-05,1.178e-05,0.0,0 STARLINK-3511,1 51752U 22016AQ  24107.21708560  .00001178  00000-0  92073-4 0  9996,2 51752  53.2183 177.6860 0001417  97.1922 262.9231 15.08836847120280,6917.89,95.438,540.735,538.775,0.0
51752.0,STARLINK-3511,PAYLOAD,2024-04-16 11:34:08,15.08844031,0.0001533,53.2181,176.4998,87.4028,272.7139,0.00015518,2.183e-05,0.0,0 STARLINK-3511,1 51752U 22016AQ  24107.48204085  .00002183  00000-0  15518-3 0  9993,2 51752  53.2181 176.4998 0001533  87.4028 272.7139 15.08844031119205,6917.868,95.437,540.794,538.673,0.0
51752.0,STARLINK-3511,PAYLOAD,2024-04-17 09:49:31,15.08850246,0.0001495,53.2175,172.3317,93.7665,266.3499,7.6271e-05,9.26e-06,0.0,0 STARLINK-3511,1 51752U 22016AQ  24108.40939592  .00000926  00000-0  76271-4 0  9991,2 51752  53.2175 172.3317 0001495  93.7665 266.3499 15.08850246119340,6917.849,95.437,540.748,538.68,0.0
51752.0,STARLINK-3511,PAYLOAD,2024-04-17 20:57:14,15.0883988,0.0001445,53.2157,170.2503,80.8041,279.3114,2.8164e-05,1.6e-06,0.0,0 STARLINK-3511,1 51752U 22016AQ  24108.87308060  .00000160  00000-0  28164-4 0  9990,2 51752  53.2157 170.2503 0001445  80.8041 279.3114 15.08839880120536,6917.881,95.438,540.745,538.746,0.0
51752.0,STARLINK-3511,PAYLOAD,2024-04-18 03:18:47,15.0883553,0.0001924,53.2191,169.066,89.5986,270.5227,3.0544e-05,1.98e-06,0.0,0 STARLINK-3511,1 51752U 22016AQ  24109.13804961  .00000198  00000-0  30544-4 0  9997,2 51752  53.2191 169.0660 0001924  89.5986 270.5227 15.08835530120570,6917.894,95.438,541.09,538.428,0.0
51752.0,STARLINK-3511,PAYLOAD,2024-04-18 11:15:44,15.08817081,0.0001398,53.2178,167.574,80.5987,279.5163,-0.00012893,-2.338e-05,0.0,0 STARLINK-3511,1 51752U 22016AQ  24109.46926844 -.00002338  00000-0 -12893-3 0  9994,2 51752  53.2178 167.5740 0001398  80.5987 279.5163 15.08817081120629,6917.95,95.439,540.783,538.848,0.0
51752.0,STARLINK-3511,PAYLOAD,2024-04-19 12:41:52,15.08854437,0.000126,53.2161,162.8178,76.7145,283.3987,0.00022368,3.275e-05,0.0,0 STARLINK-3511,1 51752U 22016AQ  24110.52908079  .00003275  00000-0  22368-3 0  9990,2 51752  53.2161 162.8178 0001260  76.7145 283.3987 15.08854437120785,6917.836,95.437,540.573,538.83,0.0
51752.0,STARLINK-3511,PAYLOAD,2024-04-20 12:32:40,15.08847443,0.000128,53.218,158.3511,74.6295,285.4839,0.00030896,4.634e-05,0.0,0 STARLINK-3511,1 51752U 22016AQ  24111.52268611  .00004634  00000-0  30896-3 0  9997,2 51752  53.2180 158.3511 0001280  74.6295 285.4839 15.08847443120937,6917.858,95.437,540.608,538.837,0.0
51752.0,STARLINK-3511,PAYLOAD,2024-04-21 12:23:28,15.08838331,0.000172,53.2172,153.8935,92.6765,267.4424,-0.0001089,-2.021e-05,0.0,0 STARLINK-3511,1 51752U 22016AQ  24112.51629788 -.00002021  00000-0 -10890-3 0  9995,2 51752  53.2172 153.8935 0001720  92.6765 267.4424 15.08838331119966,6917.885,95.438,540.94,538.561,0.0
51752.0,STARLINK-3511,PAYLOAD,2024-04-22 02:41:55,15.08849211,0.0001529,53.2184,151.2135,109.283,250.8328,2.3042e-05,7.9e-07,0.0,0 STARLINK-3511,1 51752U 22016AQ  24113.11245307  .00000079  00000-0  23042-4 0  9996,2 51752  53.2184 151.2135 0001529 109.2830 250.8328 15.08849211121172,6917.852,95.437,540.775,538.659,0.0
51752.0,STARLINK-3511,PAYLOAD,2024-04-22 09:03:28,15.08857132,0.0001779,53.2169,150.029,90.8512,269.2684,0.00036706,5.561e-05,0.0,0 STARLINK-3511,1 51752U 22016AQ  24113.37741131  .00005561  00000-0  36706-3 0  9991,2 51752  53.2169 150.0290 0001779  90.8512 269.2684 15.08857132120093,6917.828,95.436,540.924,538.462,0.0
51752.0,STARLINK-3511,PAYLOAD,2024-04-22 12:14:14,15.08862067,0.0001704,53.2167,149.4319,92.3409,267.7778,0.00049215,7.558e-05,0.0,0 STARLINK-3511,1 51752U 22016AQ  24113.50988889  .00007558  00000-0  49215-3 0  9996,2 51752  53.2167 149.4319 0001704  92.3409 267.7778 15.08862067121232,6917.813,95.436,540.857,538.499,0.0
51752.0,STARLINK-3511,PAYLOAD,2024-04-23 08:54:15,15.08840544,0.000184,53.2169,145.5689,106.9067,253.2127,5.4048e-05,5.72e-06,0.0,0 STARLINK-3511,1 51752U 22016AQ  24114.37101711  .00000572  00000-0  54048-4 0  9993,2 51752  53.2169 145.5689 0001840 106.9067 253.2127 15.08840544121362,6917.879,95.438,541.017,538.471,0.0
51752.0,STARLINK-3511,PAYLOAD,2024-04-24 08:45:02,15.08848465,0.0001806,53.2163,141.1074,110.6653,249.4533,0.00052898,8.143e-05,0.0,0 STARLINK-3511,1 51752U 22016AQ  24115.36461591  .00008143  00000-0  52898-3 0  9990,2 51752  53.2163 141.1074 0001806 110.6653 249.4533 15.08848465120391,6917.855,95.437,540.969,538.47,0.0
51752.0,STARLINK-3511,PAYLOAD,2024-04-25 02:14:17,15.08840375,0.0002109,53.217,137.8389,116.2976,243.8233,0.00010116,1.322e-05,0.0,0 STARLINK-3511,1 51752U 22016AQ  24116.09325775  .00001322  00000-0  10116-3 0  9993,2 51752  53.2170 137.8389 0002109 116.2976 243.8233 15.08840375121621,6917.879,95.438,541.203,538.285,0.0
51752.0,STARLINK-3511,PAYLOAD,2024-04-25 07:00:27,15.08833542,0.0001867,53.2166,136.9452,112.0095,248.1095,4.6863e-05,4.58e-06,0.0,0 STARLINK-3511,1 51752U 22016AQ  24116.29198194  .00000458  00000-0  46863-4 0  9996,2 51752  53.2166 136.9452 0001867 112.0095 248.1095 15.08833542121658,6917.9,95.438,541.057,538.474,0.0
51752.0,STARLINK-3511,PAYLOAD,2024-04-26 10:02:00,15.08834355,0.0001639,53.2171,131.8843,103.6306,256.4869,0.00028887,4.312e-05,0.0,0 STARLINK-3511,1 51752U 22016AQ  24117.41806205  .00004312  00000-0  28887-3 0  9998,2 51752  53.2171 131.8843 0001639 103.6306 256.4869 15.08834355121823,6917.898,95.438,540.896,538.629,0.0
